ORBITAL FACTORY 2 (OF-2)
1 45113U 19071C   20255.44147199  .00001084  00000-0  44300-4 0  9993
2 45113  51.6446 308.0833 0013056   9.5997 350.5232 15.33633410 34322
M2 PATHFINDER           
1 45727U 20037E   20255.02662356 -.00000510  00000-0 -45717-4 0  9997
2 45727  97.7025  73.1536 0013248  20.0332 340.1406 14.91220662 10776
